[{"OBJECT_NAME":"STARLINK-2614","OBJECT_ID":"2021-038AD","EPOCH":"2026-03-09T22:25:26.404896","MEAN_MOTION":15.30174752,"ECCENTRICITY":0.00013032,"INCLINATION":53.161,"RA_OF_ASC_NODE":344.4552,"ARG_OF_PERICENTER":86.9346,"MEAN_ANOMALY":273.1804,"EPHEMERIS_TYPE":0,"CLASSIFICATION_TYPE":"U","NORAD_CAT_ID":48380,"ELEMENT_SET_NO":999,"REV_AT_EPOCH":26729,"BSTAR":-0.00011387439,"MEAN_MOTION_DOT":-3.727e-5,"MEAN_MOTION_DDOT":0},{"OBJECT_NAME":"CUBESX-HSE 3 (RS42S)","OBJECT_ID":"2023-091N","EPOCH":"2026-03-09T22:57:25.321248","MEAN_MOTION":15.286147,"ECCENTRICITY":0.00127191,"INCLINATION":97.5203,"RA_OF_ASC_NODE":133.4295,"ARG_OF_PERICENTER":86.5376,"MEAN_ANOMALY":273.7318,"EPHEMERIS_TYPE":0,"CLASSIFICATION_TYPE":"U","NORAD_CAT_ID":57178,"ELEMENT_SET_NO":999,"REV_AT_EPOCH":14925,"BSTAR":0.00059055694,"MEAN_MOTION_DOT":0.00016417,"MEAN_MOTION_DDOT":0}]
